start=new Date('2021-10-15T00:00:00.000Z').valueOf();
sats=[{"ECCENTRICITY":"0.00017810","RCS_SIZE":"LARGE","TLE_LINE1":"1 48151U 21027BM  21287.37878387 -.00000039  00000-0  16277-4 0  9992","OBJECT_ID":"2021-027BM","GP_ID":"187151305","MEAN_MOTION":"15.06390728","EPHEMERIS_TYPE":"0","EPOCH":"2021-10-14T09:05:26.926368","APOAPSIS":"548.475","TLE_LINE2":"2 48151  53.0613 167.0996 0001781  71.7286 288.3896 15.06390728 30047","RA_OF_ASC_NODE":"167.0996","PERIOD":"95.593","INCLINATION":"53.0613","MEAN_MOTION_DDOT":"0.0000000000000","ELEMENT_SET_NO":"999","TIME_SYSTEM":"UTC","OBJECT_NAME":"STARLINK-2503","MEAN_ANOMALY":"288.3896","FILE":"3162351","BSTAR":"0.00001627700000","SITE":"AFETR","CENTER_NAME":"EARTH","MEAN_ELEMENT_THEORY":"SGP4","CLASSIFICATION_TYPE":"U","REF_FRAME":"TEME","LAUNCH_DATE":"2021-04-07","COUNTRY_CODE":"US","NORAD_CAT_ID":"48151","ARG_OF_PERICENTER":"71.7286","DECAY_DATE":null,"SEMIMAJOR_AXIS":"6925.377","OBJECT_TYPE":"PAYLOAD","MEAN_MOTION_DOT":"-0.00000039","REV_AT_EPOCH":"3004","PERIAPSIS":"546.009"},{"MEAN_MOTION_DDOT":"0.0000000000000","ELEMENT_SET_NO":"999","PERIOD":"95.594","INCLINATION":"53.0522","RA_OF_ASC_NODE":"59.3168","TLE_LINE2":"2 48276  53.0522  59.3168 0001374  73.2217 195.2563 15.06378497  3661","EPOCH":"2021-10-15T00:00:02.000160","APOAPSIS":"548.231","OBJECT_ID":"2021-036A","GP_ID":"187188840","MEAN_MOTION":"15.06378497","EPHEMERIS_TYPE":"0","ECCENTRICITY":"0.00013740","RCS_SIZE":"LARGE","TLE_LINE1":"1 48276U 21036A   21288.00002315 -.00034773  00000-0 -23283-2 0  9997","PERIAPSIS":"546.328","MEAN_MOTION_DOT":"-0.00034773","REV_AT_EPOCH":"366","OBJECT_TYPE":"PAYLOAD","LAUNCH_DATE":"2021-04-29","NORAD_CAT_ID":"48276","COUNTRY_CODE":"US","DECAY_DATE":null,"ARG_OF_PERICENTER":"73.2217","SEMIMAJOR_AXIS":"6925.414","SITE":"AFETR","FILE":"3163138","BSTAR":"-0.00232830000000","CENTER_NAME":"EARTH","MEAN_ELEMENT_THEORY":"SGP4","CLASSIFICATION_TYPE":"U","REF_FRAME":"TEME","OBJECT_NAME":"STARLINK-2567","MEAN_ANOMALY":"195.2563","TIME_SYSTEM":"UTC"},{"MEAN_MOTION_DDOT":"0.0000000000000","ELEMENT_SET_NO":"999","TLE_LINE2":"2 48277  53.0485  50.1359 0004727 327.2885  91.6628 15.73222176  3756","RA_OF_ASC_NODE":"50.1359","INCLINATION":"53.0485","PERIOD":"91.532","EPHEMERIS_TYPE":"0","OBJECT_ID":"2021-036B","GP_ID":"187189090","MEAN_MOTION":"15.73222176","APOAPSIS":"352.877","EPOCH":"2021-10-15T00:00:02.000160","TLE_LINE1":"1 48277U 21036B   21288.00002315  .00009172  00000-0  69619-4 0  9996","RCS_SIZE":"LARGE","ECCENTRICITY":"0.00047270","REV_AT_EPOCH":"375","MEAN_MOTION_DOT":"0.00009172","PERIAPSIS":"346.517","OBJECT_TYPE":"PAYLOAD","CLASSIFICATION_TYPE":"U","REF_FRAME":"TEME","SITE":"AFETR","FILE":"3163138","BSTAR":"0.00006961900000","CENTER_NAME":"EARTH","MEAN_ELEMENT_THEORY":"SGP4","SEMIMAJOR_AXIS":"6727.832","LAUNCH_DATE":"2021-04-29","COUNTRY_CODE":"US","NORAD_CAT_ID":"48277","ARG_OF_PERICENTER":"327.2885","DECAY_DATE":null,"TIME_SYSTEM":"UTC","MEAN_ANOMALY":"91.6628","OBJECT_NAME":"STARLINK-2569"},{"MEAN_MOTION_DDOT":"0.0000000000000","ELEMENT_SET_NO":"999","PERIOD":"91.533","INCLINATION":"53.0482","RA_OF_ASC_NODE":"50.1333","TLE_LINE2":"2 48278  53.0482  50.1333 0004755 327.6946  91.9306 15.73197260  3738","EPOCH":"2021-10-15T00:00:02.000160","APOAPSIS":"352.967","OBJECT_ID":"2021-036C","GP_ID":"187190342","MEAN_MOTION":"15.73197260","EPHEMERIS_TYPE":"0","ECCENTRICITY":"0.00047550","TLE_LINE1":"1 48278U 21036C   21288.00002315  .00017481  00000-0  12867-3 0  9991","RCS_SIZE":"LARGE","PERIAPSIS":"346.569","MEAN_MOTION_DOT":"0.00017481","REV_AT_EPOCH":"373","OBJECT_TYPE":"PAYLOAD","COUNTRY_CODE":"US","LAUNCH_DATE":"2021-04-29","NORAD_CAT_ID":"48278","ARG_OF_PERICENTER":"327.6946","DECAY_DATE":null,"SEMIMAJOR_AXIS":"6727.903","FILE":"3163138","SITE":"AFETR","BSTAR":"0.00012867000000","MEAN_ELEMENT_THEORY":"SGP4","CENTER_NAME":"EARTH","CLASSIFICATION_TYPE":"U","REF_FRAME":"TEME","OBJECT_NAME":"STARLINK-2543","MEAN_ANOMALY":"91.9306","TIME_SYSTEM":"UTC"},{"MEAN_MOTION_DDOT":"0.0000000000000","ELEMENT_SET_NO":"999","RA_OF_ASC_NODE":"50.1313","TLE_LINE2":"2 48279  53.0480  50.1313 0004672 328.4570  91.8181 15.73198373  3731","INCLINATION":"53.0480","PERIOD":"91.533","EPHEMERIS_TYPE":"0","OBJECT_ID":"2021-036D","MEAN_MOTION":"15.73198373","GP_ID":"187190092","APOAPSIS":"352.908","EPOCH":"2021-10-15T00:00:02.000160","TLE_LINE1":"1 48279U 21036D   21288.00002315  .00012465  00000-0  93077-4 0  9992","RCS_SIZE":"LARGE","ECCENTRICITY":"0.00046720","REV_AT_EPOCH":"373","MEAN_MOTION_DOT":"0.00012465","PERIAPSIS":"346.622","OBJECT_TYPE":"PAYLOAD","CLASSIFICATION_TYPE":"U","REF_FRAME":"TEME","FILE":"3163138","SITE":"AFETR","BSTAR":"0.00009307700000","MEAN_ELEMENT_THEORY":"SGP4","CENTER_NAME":"EARTH","SEMIMAJOR_AXIS":"6727.900","LAUNCH_DATE":"2021-04-29","NORAD_CAT_ID":"48279","COUNTRY_CODE":"US","ARG_OF_PERICENTER":"328.4570","DECAY_DATE":null,"TIME_SYSTEM":"UTC","MEAN_ANOMALY":"91.8181","OBJECT_NAME":"STARLINK-2580"},{"MEAN_MOTION":"15.06408654","GP_ID":"187189341","OBJECT_ID":"2021-036E","EPHEMERIS_TYPE":"0","EPOCH":"2021-10-14T18:38:00.798432","APOAPSIS":"548.609","ECCENTRICITY":"0.00020530","TLE_LINE1":"1 48280U 21036E   21287.77639813  .00001342  00000-0  10894-3 0  9993","RCS_SIZE":"LARGE","ELEMENT_SET_NO":"999","MEAN_MOTION_DDOT":"0.0000000000000","RA_OF_ASC_NODE":"110.3181","TLE_LINE2":"2 48280  53.0543 110.3181 0002053  83.8442 276.2781 15.06408654 25906","PERIOD":"95.592","INCLINATION":"53.0543","MEAN_ELEMENT_THEORY":"SGP4","CENTER_NAME":"EARTH","BSTAR":"0.00010894000000","FILE":"3163138","SITE":"AFETR","CLASSIFICATION_TYPE":"U","REF_FRAME":"TEME","DECAY_DATE":null,"ARG_OF_PERICENTER":"83.8442","LAUNCH_DATE":"2021-04-29","COUNTRY_CODE":"US","NORAD_CAT_ID":"48280","SEMIMAJOR_AXIS":"6925.322","TIME_SYSTEM":"UTC","OBJECT_NAME":"STARLINK-2565","MEAN_ANOMALY":"276.2781","MEAN_MOTION_DOT":"0.00001342","REV_AT_EPOCH":"2590","PERIAPSIS":"545.765","OBJECT_TYPE":"PAYLOAD"},{"PERIOD":"95.593","INCLINATION":"53.0548","TLE_LINE2":"2 48281  53.0548  90.5590 0001704  92.4300 267.6884 15.06390343 26179","RA_OF_ASC_NODE":"90.5590","ELEMENT_SET_NO":"999","MEAN_MOTION_DDOT":"0.0000000000000","RCS_SIZE":"LARGE","TLE_LINE1":"1 48281U 21036F   21287.72296187 -.00000702  00000-0 -28229-4 0  9995","ECCENTRICITY":"0.00017040","APOAPSIS":"548.423","EPOCH":"2021-10-14T17:21:03.905568","EPHEMERIS_TYPE":"0","MEAN_MOTION":"15.06390343","GP_ID":"187189591","OBJECT_ID":"2021-036F","OBJECT_TYPE":"PAYLOAD","PERIAPSIS":"546.063","REV_AT_EPOCH":"2617","MEAN_MOTION_DOT":"-0.00000702","MEAN_ANOMALY":"267.6884","OBJECT_NAME":"STARLINK-2520","TIME_SYSTEM":"UTC","SEMIMAJOR_AXIS":"6925.378","DECAY_DATE":null,"ARG_OF_PERICENTER":"92.4300","LAUNCH_DATE":"2021-04-29","NORAD_CAT_ID":"48281","COUNTRY_CODE":"US","CLASSIFICATION_TYPE":"U","REF_FRAME":"TEME","MEAN_ELEMENT_THEORY":"SGP4","CENTER_NAME":"EARTH","SITE":"AFETR","FILE":"3163138","BSTAR":"-0.00002822900000"},{"TIME_SYSTEM":"UTC","MEAN_ANOMALY":"262.6828","OBJECT_NAME":"STARLINK-2558","CLASSIFICATION_TYPE":"U","REF_FRAME":"TEME","SITE":"AFETR","FILE":"3163138","BSTAR":"0.00021268000000","CENTER_NAME":"EARTH","MEAN_ELEMENT_THEORY":"SGP4","SEMIMAJOR_AXIS":"6925.313","LAUNCH_DATE":"2021-04-29","COUNTRY_CODE":"US","NORAD_CAT_ID":"48282","ARG_OF_PERICENTER":"97.4333","DECAY_DATE":null,"OBJECT_TYPE":"PAYLOAD","REV_AT_EPOCH":"2612","MEAN_MOTION_DOT":"0.00002889","PERIAPSIS":"546.130","TLE_LINE1":"1 48282U 21036G   21287.81282321  .00002889  00000-0  21268-3 0  9992","RCS_SIZE":"LARGE","ECCENTRICITY":"0.00015130","EPHEMERIS_TYPE":"0","OBJECT_ID":"2021-036G","GP_ID":"187189842","MEAN_MOTION":"15.06411700","APOAPSIS":"548.225","EPOCH":"2021-10-14T19:30:27.925344","RA_OF_ASC_NODE":"95.1567","TLE_LINE2":"2 48282  53.0601  95.1567 0001513  97.4333 262.6828 15.06411700 26123","PERIOD":"95.591","INCLINATION":"53.0601","MEAN_MOTION_DDOT":"0.0000000000000","ELEMENT_SET_NO":"999"},{"DECAY_DATE":null,"ARG_OF_PERICENTER":"99.2119","NORAD_CAT_ID":"48283","LAUNCH_DATE":"2021-04-29","COUNTRY_CODE":"US","SEMIMAJOR_AXIS":"6925.347","MEAN_ELEMENT_THEORY":"SGP4","CENTER_NAME":"EARTH","BSTAR":"0.00002518100000","FILE":"3163138","SITE":"AFETR","CLASSIFICATION_TYPE":"U","REF_FRAME":"TEME","OBJECT_NAME":"STARLINK-2516","MEAN_ANOMALY":"260.9044","TIME_SYSTEM":"UTC","PERIAPSIS":"546.143","MEAN_MOTION_DOT":"0.00000094","REV_AT_EPOCH":"2612","OBJECT_TYPE":"PAYLOAD","EPOCH":"2021-10-14T19:25:07.476384","APOAPSIS":"548.280","MEAN_MOTION":"15.06400571","GP_ID":"187190593","OBJECT_ID":"2021-036H","EPHEMERIS_TYPE":"0","ECCENTRICITY":"0.00015430","TLE_LINE1":"1 48283U 21036H   21287.80911431  .00000094  00000-0  25181-4 0  9998","RCS_SIZE":"LARGE","ELEMENT_SET_NO":"999","MEAN_MOTION_DDOT":"0.0000000000000","PERIOD":"95.592","INCLINATION":"53.0622","RA_OF_ASC_NODE":"95.1673","TLE_LINE2":"2 48283  53.0622  95.1673 0001543  99.2119 260.9044 15.06400571 26125"},{"MEAN_MOTION_DDOT":"0.0000000000000","ELEMENT_SET_NO":"999","RA_OF_ASC_NODE":"95.5060","TLE_LINE2":"2 48284  53.0500  95.5060 0002098  92.9626 267.1603 15.06402399 26102","INCLINATION":"53.0500","PERIOD":"95.592","OBJECT_ID":"2021-036J","GP_ID":"187188841","MEAN_MOTION":"15.06402399","EPHEMERIS_TYPE":"0","EPOCH":"2021-10-14T17:44:16.822176","APOAPSIS":"548.659","ECCENTRICITY":"0.00020980","TLE_LINE1":"1 48284U 21036J   21287.73908359  .00001990  00000-0  15245-3 0  9991","RCS_SIZE":"LARGE","MEAN_MOTION_DOT":"0.00001990","REV_AT_EPOCH":"2610","PERIAPSIS":"545.753","OBJECT_TYPE":"PAYLOAD","SITE":"AFETR","FILE":"3163138","BSTAR":"0.00015245000000","MEAN_ELEMENT_THEORY":"SGP4","CENTER_NAME":"EARTH","REF_FRAME":"TEME","CLASSIFICATION_TYPE":"U","COUNTRY_CODE":"US","LAUNCH_DATE":"2021-04-29","NORAD_CAT_ID":"48284","ARG_OF_PERICENTER":"92.9626","DECAY_DATE":null,"SEMIMAJOR_AXIS":"6925.341","TIME_SYSTEM":"UTC","OBJECT_NAME":"STARLINK-2564","MEAN_ANOMALY":"267.1603"}];
